[{"OBJECT_NAME":"JINJUSAT-1B","OBJECT_ID":"2025-052A","EPOCH":"2026-03-09T15:55:38.242848","MEAN_MOTION":15.30194857,"ECCENTRICITY":0.00055504,"INCLINATION":97.4113,"RA_OF_ASC_NODE":325.4613,"ARG_OF_PERICENTER":82.193,"MEAN_ANOMALY":277.9941,"EPHEMERIS_TYPE":0,"CLASSIFICATION_TYPE":"U","NORAD_CAT_ID":63210,"ELEMENT_SET_NO":999,"REV_AT_EPOCH":5486,"BSTAR":0.00068430401,"MEAN_MOTION_DOT":0.00019955,"MEAN_MOTION_DDOT":0},{"OBJECT_NAME":"STARLINK-35721","OBJECT_ID":"2025-294S","EPOCH":"2026-03-09T22:18:09.310752","MEAN_MOTION":15.2759165,"ECCENTRICITY":6.833e-5,"INCLINATION":42.9958,"RA_OF_ASC_NODE":36.903,"ARG_OF_PERICENTER":147.3179,"MEAN_ANOMALY":212.7715,"EPHEMERIS_TYPE":0,"CLASSIFICATION_TYPE":"U","NORAD_CAT_ID":67046,"ELEMENT_SET_NO":999,"REV_AT_EPOCH":1483,"BSTAR":0.00099268294,"MEAN_MOTION_DOT":0.00027165,"MEAN_MOTION_DDOT":0}]
